[Satellite]
VERSION=1.1
NAME=AFRISTAR
NICKNAME=AFRISTAR
TLE1=1 25515U 98063A   17186.04820441  .00000117  00000-0  00000-0 0  9999
TLE2=2 25515   3.3346  69.6827 0003708  35.7377 216.1258  1.00271870 68349
